INTELSAT 23 (IS-23)     
1 38867U 12057A   26197.02643204 -.00000295  00000+0  00000+0 0  9998
2 38867   0.0175  29.8955 0000468 202.8618  17.6301  1.00268300 50249
FM-6                    
1 39360U 13058A   26194.96565503 -.00000021  00000+0  00000+0 0  9991
2 39360   0.0142  33.4803 0001390 144.8411 344.7900  1.00270909 46349
INTELSAT 30 (IS-30)     
1 40271U 14062A   26196.89471485 -.00000161  00000+0  00000+0 0  9994
2 40271   0.0195  54.0858 0001415 333.0622 133.6241  1.00269522  7083
DIRECTV 14              
1 40333U 14078B   26196.51016898 -.00000135  00000+0  00000+0 0  9993
2 40333   0.0110  40.7880 0000690 304.5925  32.3918  1.00267237 42322
DIRECTV 15              
1 40663U 15026A   26195.68123920 -.00000111  00000+0  00000+0 0  9999
2 40663   0.0176  71.4979 0000099 242.5429 120.8693  1.00271323 40730
SKY MEXICO-1            
1 40664U 15026B   26197.11855602 -.00000245  00000+0  00000+0 0  9997
2 40664   0.0159  47.1459 0002423  89.3509 121.3242  1.00269900 40749
INTELSAT 34 (IS-34)     
1 40874U 15039A   26197.11631450 -.00000296  00000+0  00000+0 0  9993
2 40874   0.0104  16.4226 0000390 352.3387 271.5648  1.00269484 39924
INTELSAT 31 (IS-31)     
1 41581U 16035A   26197.10848499 -.00000161  00000+0  00000+0 0  9999
2 41581   0.0113 301.5806 0001145 353.9197 302.4443  1.00270128 36973
INTELSAT 36 (IS-36)     
1 41747U 16053A   26197.14092442 -.00000034  00000+0  00000+0 0  9995
2 41747   0.0127  37.3822 0002358 302.1989  73.5997  1.00270566 36242
INTELSAT 32E (IS-32E)   
1 41945U 17007B   26196.69096175  .00000000  00000+0  00000+0 0  9993
2 41945   0.0237  56.8760 0000270 287.4334 154.7925  1.00266215 34518
INTELSAT 35E (IS-35E)   
1 42818U 17041A   26196.55183711  .00000000  00000+0  00000+0 0  9999
2 42818   0.0261  63.1048 0001683  46.6502 347.7991  1.00266637 33105
INTELSAT 37E (IS-37E)   
1 42950U 17059A   26197.12376433 -.00000152  00000+0  00000+0 0  9993
2 42950   0.0167  54.1867 0002631  70.6033 195.7001  1.00269793 32351
AZERSPACE 2 (IS-38)     
1 43632U 18074A   26196.85118248  .00000000  00000+0  00000+0 0  9997
2 43632   0.0246  58.5053 0001617  67.4827 159.2539  1.00273206 28732
HORIZONS-3E             
1 43633U 18074B   26194.64002854 -.00000035  00000+0  00000+0 0  9997
2 43633   0.0498 224.9289 0000940  53.6947  52.2963  1.00270118 28608
AT&T T-16               
1 44333U 19034A   26195.82414432 -.00000123  00000+0  00000+0 0  9990
2 44333   0.0157  70.7114 0000616 248.2150 169.5701  1.00268430 25917
INTELSAT 39 (IS-39)     
1 44476U 19049B   26197.13962441  .00000000  00000+0  00000+0 0  9991
2 44476   0.0247  59.2038 0000929 281.5049  65.4850  1.00269286 25410
GALAXY 30 (G-30)        
1 46114U 20056C   26196.96005456  .00000026  00000+0  00000+0 0  9994
2 46114   0.0128  68.4269 0002010  47.3472  38.6367  1.00272066 21587
GALAXY 33 (G-33)        
1 54026U 22128A   26196.95832123  .00000068  00000+0  00000+0 0  9991
2 54026   0.0111  52.8487 0001814  67.7217  25.2247  1.00272587 14032
GALAXY 34 (G-34)        
1 54027U 22128B   26197.15316204  .00000048  00000+0  00000+0 0  9990
2 54027   0.0115  44.1059 0001518 105.6630  70.3609  1.00273219 14203
GALAXY 31 (G-31)        
1 54243U 22153A   26197.14099610  .00000003  00000+0  00000+0 0  9997
2 54243   0.0139  88.7797 0001020  31.0845 103.8504  1.00271461  7429
GALAXY 32 (G-32)        
1 54244U 22153B   26197.10935166 -.00000185  00000+0  00000+0 0  9991
2 54244   0.0093  52.6326 0001335 351.4801 198.1918  1.00272484 13437
GALAXY 35 (G-35)        
1 54741U 22170A   26197.10891831 -.00000173  00000+0  00000+0 0  9999
2 54741   0.0158  70.4057 0001798  45.9484 123.6831  1.00272286 13184
GALAXY 36 (G-36)        
1 54742U 22170B   26196.61074071 -.00000195  00000+0  00000+0 0  9998
2 54742   0.0054 142.8857 0002396 316.1422 325.2844  1.00270281 13055
GALAXY 37 (G-37)        
1 57493U 23112A   26197.03090868  .00000000  00000+0  00000+0 0  9994
2 57493   0.0183  48.0907 0001811  70.1892  59.7307  1.00271251 10830
